{
    "links": {
        "self": "http://www.neowsapp.com/rest/v1/neo/3774732?api_key=iIulBulltgU6a56xZRHN4H3l9WmuAYTsLGpBGhQ2"
    },
    "id": "3774732",
    "neo_reference_id": "3774732",
    "name": "(2017 KW4)",
    "designation": "2017 KW4",
    "nasa_jpl_url": "http://ssd.jpl.nasa.gov/sbdb.cgi?sstr=3774732",
    "absolute_magnitude_h": 25.5,
    "estimated_diameter": {
        "kilometers": {
            "estimated_diameter_min": 0.0211132445,
            "estimated_diameter_max": 0.0472106499
        },
        "meters": {
            "estimated_diameter_min": 21.113244479,
            "estimated_diameter_max": 47.2106498806
        },
        "miles": {
            "estimated_diameter_min": 0.0131191578,
            "estimated_diameter_max": 0.0293353287
        },
        "feet": {
            "estimated_diameter_min": 69.2691770164,
            "estimated_diameter_max": 154.8905885541
        }
    },
    "is_potentially_hazardous_asteroid": false,
    "close_approach_data": [
        {
            "close_approach_date": "1928-09-15",
            "close_approach_date_full": "1928-Sep-15 23:46",
            "epoch_date_close_approach": -1303085640000,
            "relative_velocity": {
                "kilometers_per_second": "20.4228455245",
                "kilometers_per_hour": "73522.2438881219",
                "miles_per_hour": "45683.8631537055"
            },
            "miss_distance": {
                "astronomical": "0.2906442027",
                "lunar": "113.0605948503",
                "kilometers": "43479753.651768249",
                "miles": "27017066.1212058762"
            },
            "orbiting_body": "Earth"
        },
        {
            "close_approach_date": "2017-05-25",
            "close_approach_date_full": "2017-May-25 15:34",
            "epoch_date_close_approach": 1495726440000,
            "relative_velocity": {
                "kilometers_per_second": "13.0052418599",
                "kilometers_per_hour": "46818.8706955327",
                "miles_per_hour": "29091.4255163437"
            },
            "miss_distance": {
                "astronomical": "0.0099795873",
                "lunar": "3.8820594597",
                "kilometers": "1492925.003559051",
                "miles": "927660.5810188638"
            },
            "orbiting_body": "Earth"
        },
        {
            "close_approach_date": "2024-09-25",
            "close_approach_date_full": "2024-Sep-25 14:59",
            "epoch_date_close_approach": 1727276340000,
            "relative_velocity": {
                "kilometers_per_second": "24.6515026322",
                "kilometers_per_hour": "88745.409475875",
                "miles_per_hour": "55142.9462379402"
            },
            "miss_distance": {
                "astronomical": "0.4162104949",
                "lunar": "161.9058825161",
                "kilometers": "62264203.508685863",
                "miles": "38689182.0190883894"
            },
            "orbiting_body": "Earth"
        }
    ],
    "orbital_data": {
        "orbit_id": "4",
        "orbit_determination_date": "2017-05-29 06:18:20",
        "first_observation_date": "2017-05-22",
        "last_observation_date": "2017-05-25",
        "data_arc_in_days": 3,
        "observations_used": 113,
        "orbit_uncertainty": "7",
        "minimum_orbit_intersection": ".00789568",
        "jupiter_tisserand_invariant": "3.277",
        "epoch_osculation": "2459000.5",
        "eccentricity": ".6157852221461797",
        "semi_major_axis": "2.335757537794285",
        "inclination": "6.189838807581963",
        "ascending_node_longitude": "239.5426289818652",
        "orbital_period": "1303.887330523032",
        "perihelion_distance": ".8974325635040173",
        "perihelion_argument": "49.89729716271229",
        "aphelion_distance": "3.774082512084552",
        "perihelion_time": "2459237.166133317693",
        "mean_anomaly": "294.6570781079734",
        "mean_motion": ".2760974752746406",
        "equinox": "J2000",
        "orbit_class": {
            "orbit_class_type": "APO",
            "orbit_class_description": "Near-Earth asteroid orbits which cross the Earth’s orbit similar to that of 1862 Apollo",
            "orbit_class_range": "a (semi-major axis) > 1.0 AU; q (perihelion) < 1.017 AU"
        }
    },
    "is_sentry_object": false
}